NORAD_CAT_ID,OBJECT_NAME,OBJECT_TYPE,EPOCH,MEAN_MOTION,ECCENTRICITY,INCLINATION,RA_OF_ASC_NODE,ARG_OF_PERICENTER,MEAN_ANOMALY,BSTAR,MEAN_MOTION_DOT,MEAN_MOTION_DDOT,TLE_LINE0,TLE_LINE1,TLE_LINE2,SEMIMAJOR_AXIS,PERIOD,APOGEE,PERIGEE,DECAYED
53002.0,STARLINK-4121,PAYLOAD,2022-11-16 12:56:46,15.08847559,0.0002332,53.2175,122.2113,49.6638,310.4558,1.1152e-05,-1.11e-06,0.0,0 STARLINK-4121,1 53002U 22076S   22320.53942970 -.00000111  00000-0  11152-4 0  9993,2 53002  53.2175 122.2113 0002332  49.6638 310.4558 15.08847559 20777,6917.857,95.437,541.336,538.109,0.0
53002.0,STARLINK-4121,PAYLOAD,2022-11-16 19:18:19,15.08844219,0.0002265,53.2176,121.0219,48.9884,311.1304,-7.287899999999999e-05,-1.448e-05,0.0,0 STARLINK-4121,1 53002U 22076S   22320.80439139 -.00001448  00000-0 -72879-4 0  9999,2 53002  53.2176 121.0219 0002265  48.9884 311.1304 15.08844219 20342,6917.8669999999975,95.437,541.299,538.1659999999998,0.0
53002.0,STARLINK-4121,PAYLOAD,2022-11-17 12:47:34,15.08831858,0.0002285,53.2178,117.7514,47.2102,312.9082,-7.681e-05,-1.51e-05,0.0,0 STARLINK-4121,1 53002U 22076S   22321.53303844 -.00001510  00000-0 -76810-4 0  9992,2 53002  53.2178 117.7514 0002285  47.2102 312.9082 15.08831858 20450,6917.905,95.438,541.351,538.19,0.0
53002.0,STARLINK-4121,PAYLOAD,2022-11-17 17:33:44,15.08829062,0.000224,53.218,116.8593,47.2291,312.8889,-9.757e-05,-1.84e-05,0.0,0 STARLINK-4121,1 53002U 22076S   22321.73176156 -.00001840  00000-0 -97570-4 0  9990,2 53002  53.2180 116.8593 0002240  47.2291 312.8889 15.08829062 20953,6917.9140000000025,95.438,541.328,538.229,0.0
53002.0,STARLINK-4121,PAYLOAD,2022-11-17 19:09:07,15.08828051,0.0002233,53.218,116.5621,49.0296,311.0889,-9.4175e-05,-1.786e-05,0.0,0 STARLINK-4121,1 53002U 22076S   22321.79800218 -.00001786  00000-0 -94175-4 0  9996,2 53002  53.2180 116.5621 0002233  49.0296 311.0889 15.08828051 20496,6917.917,95.438,541.327,538.237,0.0
53002.0,STARLINK-4121,PAYLOAD,2022-11-18 03:06:03,15.08830729,0.0002266,53.2179,115.0748,47.3347,312.7836,-7.809e-05,-1.531e-05,0.0,0 STARLINK-4121,1 53002U 22076S   22322.12920188 -.00001531  00000-0 -78090-4 0  9999,2 53002  53.2179 115.0748 0002266  47.3347 312.7836 15.08830729 20543,6917.909000000002,95.438,541.341,538.206,0.0
53002.0,STARLINK-4121,PAYLOAD,2022-11-18 20:35:17,15.08831386,0.0002238,53.218,111.8039,48.2249,311.8934,3.2627e-05,2.31e-06,0.0,0 STARLINK-4121,1 53002U 22076S   22322.85784205  .00000231  00000-0  32627-4 0  9997,2 53002  53.2180 111.8039 0002238  48.2249 311.8934 15.08831386 21126,6917.906999999997,95.438,541.32,538.2230000000002,0.0
53002.0,STARLINK-4121,PAYLOAD,2022-11-19 02:56:49,15.0883554,0.0002249,53.218,110.6142,45.1698,314.9477,5.1356e-05,5.29e-06,0.0,0 STARLINK-4121,1 53002U 22076S   22323.12280035  .00000529  00000-0  51356-4 0  9990,2 53002  53.2180 110.6142 0002249  45.1698 314.9477 15.08835540 20697,6917.894,95.438,541.315,538.203,0.0
53002.0,STARLINK-4121,PAYLOAD,2022-11-19 18:50:41,15.08837489,0.0002258,53.218,107.6406,44.8421,315.2753,0.00015885,2.241e-05,0.0,0 STARLINK-4121,1 53002U 22076S   22323.78519710  .00002241  00000-0  15885-3 0  9996,2 53002  53.2180 107.6406 0002258  44.8421 315.2753 15.08837489 20792,6917.888000000001,95.438,541.315,538.191,0.0
53002.0,STARLINK-4121,PAYLOAD,2022-11-20 02:47:36,15.08863315,0.0002109,53.2181,106.1526,40.6975,319.4174,-0.00021482,-3.708e-05,0.0,0 STARLINK-4121,1 53002U 22076S   22324.11639029 -.00003708  00000-0 -21482-3 0  9991,2 53002  53.2181 106.1526 0002109  40.6975 319.4174 15.08863315 21312,6917.809,95.436,541.133,538.215,0.0
53002.0,STARLINK-4121,PAYLOAD,2022-11-20 09:09:09,15.08835837,0.0002372,53.2178,104.9645,47.0332,313.0859,9.5009e-05,1.224e-05,0.0,0 STARLINK-4121,1 53002U 22076S   22324.38136252  .00001224  00000-0  95009-4 0  9996,2 53002  53.2178 104.9645 0002372  47.0332 313.0859 15.08835837 21358,6917.893,95.438,541.399,538.117,0.0
53002.0,STARLINK-4121,PAYLOAD,2022-11-20 18:41:28,15.08840477,0.0002298,53.2181,103.1806,45.5935,314.5245,5.2172e-05,5.42e-06,0.0,0 STARLINK-4121,1 53002U 22076S   22324.77880116  .00000542  00000-0  52172-4 0  9990,2 53002  53.2181 103.1806 0002298  45.5935 314.5245 15.08840477 20946,6917.879,95.438,541.3340000000002,538.154,0.0
53002.0,STARLINK-4121,PAYLOAD,2022-11-21 02:38:23,15.08844579,0.0002281,53.2183,101.6938,45.5964,314.5214,8.2035e-05,1.018e-05,0.0,0 STARLINK-4121,1 53002U 22076S   22325.10999691  .00001018  00000-0  82035-4 0  9997,2 53002  53.2183 101.6938 0002281  45.5964 314.5214 15.08844579 21462,6917.866,95.437,541.309,538.153,0.0
53002.0,STARLINK-4121,PAYLOAD,2022-11-21 08:59:56,15.08844486,0.0002249,53.2184,100.5044,46.3195,313.7983,6.6243e-05,7.66e-06,0.0,0 STARLINK-4121,1 53002U 22076S   22325.37495716  .00000766  00000-0  66243-4 0  9997,2 53002  53.2184 100.5044 0002249  46.3195 313.7983 15.08844486 21032,6917.8669999999975,95.437,541.288,538.1759999999998,0.0
53002.0,STARLINK-4121,PAYLOAD,2022-11-21 18:32:15,15.08841245,0.0002218,53.2179,98.7198,45.3479,314.7693,-2.1567e-05,-6.32e-06,0.0,0 STARLINK-4121,1 53002U 22076S   22325.77240075 -.00000632  00000-0 -21567-4 0  9991,2 53002  53.2179  98.7198 0002218  45.3479 314.7693 15.08841245 21099,6917.877,95.437,541.276,538.207,0.0
53002.0,STARLINK-4121,PAYLOAD,2022-11-21 21:43:01,15.08842012,0.0002217,53.2178,98.125,45.3779,314.7394,-1.4597e-05,-5.21e-06,0.0,0 STARLINK-4121,1 53002U 22076S   22325.90487974 -.00000521  00000-0 -14597-4 0  9999,2 53002  53.2178  98.1250 0002217  45.3779 314.7394 15.08842012 21588,6917.874,95.437,541.273,538.206,0.0
53002.0,STARLINK-4121,PAYLOAD,2022-11-22 15:12:15,15.0884764,0.0002213,53.218,94.854,45.7698,314.3476,0.00012142,1.645e-05,0.0,0 STARLINK-4121,1 53002U 22076S   22326.63350920  .00001645  00000-0  12142-3 0  9999,2 53002  53.2180  94.8540 0002213  45.7698 314.3476 15.08847640 21697,6917.857,95.437,541.253,538.191,0.0
53002.0,STARLINK-4121,PAYLOAD,2022-11-22 19:58:25,15.08841311,0.0002268,53.2184,93.9623,41.3205,318.7958,1.9079e-05,1.5e-07,0.0,0 STARLINK-4121,1 53002U 22076S   22326.83223544  .00000015  00000-0  19079-4 0  9999,2 53002  53.2184  93.9623 0002268  41.3205 318.7958 15.08841311 21253,6917.876,95.437,541.31,538.172,0.0
53002.0,STARLINK-4121,PAYLOAD,2022-11-23 08:41:30,15.08840416,0.0002242,53.2177,91.5841,40.3294,319.7864,-3.1841e-05,-7.95e-06,0.0,0 STARLINK-4121,1 53002U 22076S   22327.36215694 -.00000795  00000-0 -31841-4 0  9993,2 53002  53.2177  91.5841 0002242  40.3294 319.7864 15.08840416 21331,6917.879,95.438,541.295,538.193,0.0
53002.0,STARLINK-4121,PAYLOAD,2022-11-23 15:03:03,15.08836256,0.0002216,53.2181,90.3942,41.8126,318.3035,-6.2686e-05,-1.286e-05,0.0,0 STARLINK-4121,1 53002U 22076S   22327.62712071 -.00001286  00000-0 -62686-4 0  9990,2 53002  53.2181  90.3942 0002216  41.8126 318.3035 15.08836256 21844,6917.892,95.438,541.29,538.224,0.0
53002.0,STARLINK-4121,PAYLOAD,2022-11-24 08:32:17,15.08837722,0.0002269,53.2186,87.12299999999998,41.5467,318.5697,-5.4376e-05,-1.154e-05,0.0,0 STARLINK-4121,1 53002U 22076S   22328.35576185 -.00001154  00000-0 -54376-4 0  9996,2 53002  53.2186  87.1230 0002269  41.5467 318.5697 15.08837722 21481,6917.887,95.438,541.322,538.183,0.0
53002.0,STARLINK-4121,PAYLOAD,2022-11-24 13:18:26,15.0884589,0.0002257,53.2185,86.2316,41.728,318.3884,-6.959e-05,-1.396e-05,0.0,0 STARLINK-4121,1 53002U 22076S   22328.55447805 -.00001396  00000-0 -69590-4 0  9996,2 53002  53.2185  86.2316 0002257  41.7280 318.3884 15.08845890 21983,6917.861999999999,95.437,541.289,538.1659999999998,0.0
53002.0,STARLINK-4121,PAYLOAD,2022-11-25 08:23:03,15.08856434,0.0002281,53.2177,82.6618,39.7501,320.3658,-0.00015377,-2.736e-05,0.0,0 STARLINK-4121,1 53002U 22076S   22329.34934985 -.00002736  00000-0 -15377-3 0  9996,2 53002  53.2177  82.6618 0002281  39.7501 320.3658 15.08856434 22102,6917.83,95.437,541.273,538.117,0.0
53002.0,STARLINK-4121,PAYLOAD,2022-11-25 11:33:50,15.08835605,0.0002169,53.2175,82.0669,37.0525,323.0617,0.00010549,1.391e-05,0.0,0 STARLINK-4121,1 53002U 22076S   22329.48183712  .00001391  00000-0  10549-3 0  9995,2 53002  53.2175  82.0669 0002169  37.0525 323.0617 15.08835605 21653,6917.894,95.438,541.259,538.258,0.0
53002.0,STARLINK-4121,PAYLOAD,2022-11-25 13:09:13,15.08829722,0.0002121,53.2183,81.7698,36.7262,323.3875,0.00018755,2.697e-05,0.0,0 STARLINK-4121,1 53002U 22076S   22329.54807808  .00002697  00000-0  18755-3 0  9998,2 53002  53.2183  81.7698 0002121  36.7262 323.3875 15.08829722 22138,6917.9119999999975,95.438,541.244,538.31,0.0
53002.0,STARLINK-4121,PAYLOAD,2022-11-26 00:16:55,15.08844604,0.0002193,53.2187,79.6879,39.3718,320.7433,0.00012636,1.724e-05,0.0,0 STARLINK-4121,1 53002U 22076S   22330.01175085  .00001724  00000-0  12636-3 0  9999,2 53002  53.2187  79.6879 0002193  39.3718 320.7433 15.08844604 22208,6917.866,95.437,541.248,538.214,0.0
53002.0,STARLINK-4121,PAYLOAD,2022-11-26 11:24:37,15.0884659,0.0002155,53.2196,77.6068,47.3433,312.774,4.0127e-05,3.51e-06,0.0,0 STARLINK-4121,1 53002U 22076S   22330.47543131  .00000351  00000-0  40127-4 0  9992,2 53002  53.2196  77.6068 0002155  47.3433 312.7740 15.08846590 21800,6917.86,95.437,541.216,538.234,0.0
53002.0,STARLINK-4121,PAYLOAD,2022-11-26 17:46:09,15.08848789,0.0002259,53.2188,76.4182,39.1105,321.005,5.8687e-05,6.46e-06,0.0,0 STARLINK-4121,1 53002U 22076S   22330.74038821  .00000646  00000-0  58687-4 0  9994,2 53002  53.2188  76.4182 0002259  39.1105 321.0050 15.08848789 21848,6917.854,95.437,541.281,538.156,0.0
53002.0,STARLINK-4121,PAYLOAD,2022-11-27 08:04:38,15.08836923,0.0002177,53.2184,73.7412,38.4438,321.6709,3.2897000000000013e-06,-2.36e-06,0.0,0 STARLINK-4121,1 53002U 22076S   22331.33655476 -.00000236  00000-0  32897-5 0  9993,2 53002  53.2184  73.7412 0002177  38.4438 321.6709 15.08836923 22407,6917.89,95.438,541.261,538.249,0.0
